{
    "links": {
        "self": "http://www.neowsapp.com/rest/v1/neo/3703246?api_key=iIulBulltgU6a56xZRHN4H3l9WmuAYTsLGpBGhQ2"
    },
    "id": "3703246",
    "neo_reference_id": "3703246",
    "name": "(2014 YC42)",
    "designation": "2014 YC42",
    "nasa_jpl_url": "http://ssd.jpl.nasa.gov/sbdb.cgi?sstr=3703246",
    "absolute_magnitude_h": 24.8,
    "estimated_diameter": {
        "kilometers": {
            "estimated_diameter_min": 0.0291443905,
            "estimated_diameter_max": 0.0651688382
        },
        "meters": {
            "estimated_diameter_min": 29.1443904535,
            "estimated_diameter_max": 65.1688382168
        },
        "miles": {
            "estimated_diameter_min": 0.018109479,
            "estimated_diameter_max": 0.0404940262
        },
        "feet": {
            "estimated_diameter_min": 95.6180819754,
            "estimated_diameter_max": 213.8085311752
        }
    },
    "is_potentially_hazardous_asteroid": false,
    "close_approach_data": [
        {
            "close_approach_date": "2014-12-30",
            "close_approach_date_full": "2014-Dec-30 07:42",
            "epoch_date_close_approach": 1419925320000,
            "relative_velocity": {
                "kilometers_per_second": "18.8644034084",
                "kilometers_per_hour": "67911.8522701284",
                "miles_per_hour": "42197.7839841806"
            },
            "miss_distance": {
                "astronomical": "0.0107356919",
                "lunar": "4.1761841491",
                "kilometers": "1606036.641216253",
                "miles": "997944.8935321714"
            },
            "orbiting_body": "Earth"
        }
    ],
    "orbital_data": {
        "orbit_id": "3",
        "orbit_determination_date": "2017-04-06 08:36:34",
        "first_observation_date": "2014-12-29",
        "last_observation_date": "2014-12-31",
        "data_arc_in_days": 2,
        "observations_used": 47,
        "orbit_uncertainty": "7",
        "minimum_orbit_intersection": ".00642309",
        "jupiter_tisserand_invariant": "3.597",
        "epoch_osculation": "2459000.5",
        "eccentricity": ".5353383994181822",
        "semi_major_axis": "1.939860721045051",
        "inclination": "27.5513616737803",
        "ascending_node_longitude": "98.51679069957569",
        "orbital_period": "986.8570566677229",
        "perihelion_distance": ".9013787875465925",
        "perihelion_argument": "42.09133585021626",
        "aphelion_distance": "2.978342654543509",
        "perihelion_time": "2459026.558105481930",
        "mean_anomaly": "350.4941471410551",
        "mean_motion": ".3647944730877198",
        "equinox": "J2000",
        "orbit_class": {
            "orbit_class_type": "APO",
            "orbit_class_description": "Near-Earth asteroid orbits which cross the Earth’s orbit similar to that of 1862 Apollo",
            "orbit_class_range": "a (semi-major axis) > 1.0 AU; q (perihelion) < 1.017 AU"
        }
    },
    "is_sentry_object": false
}